{
    "links": {
        "self": "http://www.neowsapp.com/rest/v1/neo/3989150?api_key=iIulBulltgU6a56xZRHN4H3l9WmuAYTsLGpBGhQ2"
    },
    "id": "3989150",
    "neo_reference_id": "3989150",
    "name": "(2020 BL6)",
    "designation": "2020 BL6",
    "nasa_jpl_url": "http://ssd.jpl.nasa.gov/sbdb.cgi?sstr=3989150",
    "absolute_magnitude_h": 24.933,
    "estimated_diameter": {
        "kilometers": {
            "estimated_diameter_min": 0.0274128997,
            "estimated_diameter_max": 0.0612971071
        },
        "meters": {
            "estimated_diameter_min": 27.4128996713,
            "estimated_diameter_max": 61.2971071255
        },
        "miles": {
            "estimated_diameter_min": 0.0170335809,
            "estimated_diameter_max": 0.0380882448
        },
        "feet": {
            "estimated_diameter_min": 89.9373377577,
            "estimated_diameter_max": 201.1060009415
        }
    },
    "is_potentially_hazardous_asteroid": false,
    "close_approach_data": [
        {
            "close_approach_date": "2016-01-23",
            "close_approach_date_full": "2016-Jan-23 21:09",
            "epoch_date_close_approach": 1453583340000,
            "relative_velocity": {
                "kilometers_per_second": "17.5075609178",
                "kilometers_per_hour": "63027.219304067",
                "miles_per_hour": "39162.6630170188"
            },
            "miss_distance": {
                "astronomical": "0.3965091364",
                "lunar": "154.2420540596",
                "kilometers": "59316922.240979468",
                "miles": "36857826.3604259384"
            },
            "orbiting_body": "Earth"
        },
        {
            "close_approach_date": "2019-08-16",
            "close_approach_date_full": "2019-Aug-16 01:44",
            "epoch_date_close_approach": 1565919840000,
            "relative_velocity": {
                "kilometers_per_second": "9.7266475045",
                "kilometers_per_hour": "35015.9310163479",
                "miles_per_hour": "21757.537802908"
            },
            "miss_distance": {
                "astronomical": "0.2008622485",
                "lunar": "78.1354146665",
                "kilometers": "30048564.539010695",
                "miles": "18671312.204289791"
            },
            "orbiting_body": "Earth"
        },
        {
            "close_approach_date": "2020-01-17",
            "close_approach_date_full": "2020-Jan-17 10:35",
            "epoch_date_close_approach": 1579257300000,
            "relative_velocity": {
                "kilometers_per_second": "9.9455767413",
                "kilometers_per_hour": "35804.0762686922",
                "miles_per_hour": "22247.2606126216"
            },
            "miss_distance": {
                "astronomical": "0.0884256066",
                "lunar": "34.3975609674",
                "kilometers": "13228282.400817942",
                "miles": "8219673.5325419196"
            },
            "orbiting_body": "Earth"
        },
        {
            "close_approach_date": "2023-08-24",
            "close_approach_date_full": "2023-Aug-24 09:20",
            "epoch_date_close_approach": 1692868800000,
            "relative_velocity": {
                "kilometers_per_second": "15.6082517981",
                "kilometers_per_hour": "56189.7064729912",
                "miles_per_hour": "34914.098447065"
            },
            "miss_distance": {
                "astronomical": "0.4151191918",
                "lunar": "161.4813656102",
                "kilometers": "62100946.889401466",
                "miles": "38587739.0598375908"
            },
            "orbiting_body": "Earth"
        }
    ],
    "orbital_data": {
        "orbit_id": "4",
        "orbit_determination_date": "2020-01-28 05:44:38",
        "first_observation_date": "2020-01-22",
        "last_observation_date": "2020-01-27",
        "data_arc_in_days": 5,
        "observations_used": 28,
        "orbit_uncertainty": "8",
        "minimum_orbit_intersection": ".0879671",
        "jupiter_tisserand_invariant": "5.242",
        "epoch_osculation": "2458873.5",
        "eccentricity": ".1761722541161656",
        "semi_major_axis": "1.198628074871017",
        "inclination": "17.6136089071685",
        "ascending_node_longitude": "123.0287982270669",
        "orbital_period": "479.3194976522318",
        "perihelion_distance": ".98746306507407",
        "perihelion_argument": "294.6206762151974",
        "aphelion_distance": "1.409793084667964",
        "perihelion_time": "2458808.889106874414",
        "mean_anomaly": "48.52696716728827",
        "mean_motion": ".75106479449162",
        "equinox": "J2000",
        "orbit_class": {
            "orbit_class_type": "APO",
            "orbit_class_description": "Near-Earth asteroid orbits which cross the Earth’s orbit similar to that of 1862 Apollo",
            "orbit_class_range": "a (semi-major axis) > 1.0 AU; q (perihelion) < 1.017 AU"
        }
    },
    "is_sentry_object": false
}